{
    "links": {
        "self": "http://www.neowsapp.com/rest/v1/neo/3841699?api_key=iIulBulltgU6a56xZRHN4H3l9WmuAYTsLGpBGhQ2"
    },
    "id": "3841699",
    "neo_reference_id": "3841699",
    "name": "(2019 JC1)",
    "designation": "2019 JC1",
    "nasa_jpl_url": "http://ssd.jpl.nasa.gov/sbdb.cgi?sstr=3841699",
    "absolute_magnitude_h": 24.6,
    "estimated_diameter": {
        "kilometers": {
            "estimated_diameter_min": 0.0319561887,
            "estimated_diameter_max": 0.0714562102
        },
        "meters": {
            "estimated_diameter_min": 31.9561886721,
            "estimated_diameter_max": 71.4562101727
        },
        "miles": {
            "estimated_diameter_min": 0.0198566489,
            "estimated_diameter_max": 0.0444008168
        },
        "feet": {
            "estimated_diameter_min": 104.8431420431,
            "estimated_diameter_max": 234.436392583
        }
    },
    "is_potentially_hazardous_asteroid": false,
    "close_approach_data": [
        {
            "close_approach_date": "1905-02-25",
            "close_approach_date_full": "1905-Feb-25 04:40",
            "epoch_date_close_approach": -2046453600000,
            "relative_velocity": {
                "kilometers_per_second": "7.2638679812",
                "kilometers_per_hour": "26149.9247322308",
                "miles_per_hour": "16248.5462870908"
            },
            "miss_distance": {
                "astronomical": "1.7245970657",
                "lunar": "670.8682585573",
                "kilometers": "257996047.636970059",
                "miles": "160311310.2673784542"
            },
            "orbiting_body": "Juptr"
        },
        {
            "close_approach_date": "2019-05-12",
            "close_approach_date_full": "2019-May-12 17:57",
            "epoch_date_close_approach": 1557683820000,
            "relative_velocity": {
                "kilometers_per_second": "4.2234087144",
                "kilometers_per_hour": "15204.2713718049",
                "miles_per_hour": "9447.3429532196"
            },
            "miss_distance": {
                "astronomical": "0.2006859525",
                "lunar": "78.0668355225",
                "kilometers": "30022191.032921175",
                "miles": "18654924.467515215"
            },
            "orbiting_body": "Earth"
        }
    ],
    "orbital_data": {
        "orbit_id": "2",
        "orbit_determination_date": "2019-05-22 07:54:51",
        "first_observation_date": "2019-05-01",
        "last_observation_date": "2019-05-14",
        "data_arc_in_days": 13,
        "observations_used": 19,
        "orbit_uncertainty": "8",
        "minimum_orbit_intersection": ".200034",
        "jupiter_tisserand_invariant": "3.154",
        "epoch_osculation": "2458605.5",
        "eccentricity": ".5458762405144385",
        "semi_major_axis": "2.660344839931381",
        "inclination": "1.447849207957138",
        "ascending_node_longitude": "326.1139915910483",
        "orbital_period": "1584.912638672123",
        "perihelion_distance": "1.208125800237653",
        "perihelion_argument": "263.2905084419837",
        "aphelion_distance": "4.112563879625108",
        "perihelion_time": "2458614.984205028213",
        "mean_anomaly": "357.8457400573086",
        "mean_motion": ".2271418570436895",
        "equinox": "J2000",
        "orbit_class": {
            "orbit_class_type": "AMO",
            "orbit_class_description": "Near-Earth asteroid orbits similar to that of 1221 Amor",
            "orbit_class_range": "1.017 AU < q (perihelion) < 1.3 AU"
        }
    },
    "is_sentry_object": false
}